<?xml version='1.0' encoding='utf-8'?>
<kml xmlns="http://www.opengis.net/kml/2.2" xmlns:ns1="http://www.w3.org/2005/Atom">
<Document>
	<name>Expansão BHS.kml</name>
	<StyleMap id="msn_ylw-pushpin">
		<Pair>
			<key>normal</key>
			<styleUrl>#sn_ylw-pushpin</styleUrl>
		</Pair>
		<Pair>
			<key>highlight</key>
			<styleUrl>#sh_ylw-pushpin</styleUrl>
		</Pair>
	</StyleMap>
	<Style id="sh_ylw-pushpin">
		<IconStyle>
			<scale>1.3</scale>
			<Icon>
				<href>http://maps.google.com/mapfiles/kml/pushpin/ylw-pushpin.png</href>
			</Icon>
			<hotSpot x="20" y="2" xunits="pixels" yunits="pixels" />
		</IconStyle>
		<BalloonStyle>
		</BalloonStyle>
		<PolyStyle>
			<color>4d0000ff</color>
		</PolyStyle>
	</Style>
	<Style id="sn_ylw-pushpin">
		<IconStyle>
			<scale>1.1</scale>
			<Icon>
				<href>http://maps.google.com/mapfiles/kml/pushpin/ylw-pushpin.png</href>
			</Icon>
			<hotSpot x="20" y="2" xunits="pixels" yunits="pixels" />
		</IconStyle>
		<BalloonStyle>
		</BalloonStyle>
		<PolyStyle>
			<color>4d0000ff</color>
		</PolyStyle>
	</Style>
	<Folder>
		<name>Expansão BHS</name>
		<open>1</open>
		<Placemark>
			<name>Polígono sem título</name>
			<styleUrl>#msn_ylw-pushpin</styleUrl>
			<Polygon>
				<tessellate>1</tessellate>
				<outerBoundaryIs>
					<LinearRing>
						<coordinates>
							-42.81210019585698,-2.751019778796455,0 -42.81290222363703,-2.751906309210874,0 -42.81478439492433,-2.753989169440576,0 -42.81520147732339,-2.754149398649859,0 -42.8156281425433,-2.75426682984275,0 -42.81552121256203,-2.754619311568072,0 -42.81092301393311,-2.753519151481647,0 -42.81043111518498,-2.753380300189377,0 -42.81027071097129,-2.753754141363793,0 -42.80980019621137,-2.753636652751123,0 -42.80980019697451,-2.753529841078956,0 -42.80847418871673,-2.753145330718211,0 -42.80794557726749,-2.753138665606793,0 -42.80787072328695,-2.753320245304396,0 -42.80807389811451,-2.753565913028045,0 -42.80807389824791,-2.754334963953413,0 -42.80643779311319,-2.754527232085067,0 -42.80519733902773,-2.754420429494991,0 -42.80425629528415,-2.754302947114246,0 -42.80428839342513,-2.75349116315701,0 -42.80456643278848,-2.75329889733261,0 -42.80468407558801,-2.752380312706286,0 -42.80497280380749,-2.752241456623133,0 -42.80606353935308,-2.752476437803625,0 -42.80615978333657,-2.75199578842718,0 -42.80497280494872,-2.752123964122515,0 -42.80443813648773,-2.750436349252243,0 -42.80303109286746,-2.749959557758865,0 -42.80345883186527,-2.749094395802935,0 -42.80464579315933,-2.74925461732021,0 -42.80509491167551,-2.749607092404524,0 -42.80618563103717,-2.749842077414787,0 -42.80707292008835,-2.748230860344753,0 -42.80791285350769,-2.748811089056938,0 -42.80881833046455,-2.746777149303406,0 -42.8106132536141,-2.747885085162042,0 -42.80964090936959,-2.749823871276838,0 -42.80959947302332,-2.74992349754896,0 -42.80997115226332,-2.750119788973874,0 -42.81210019585698,-2.751019778796455,0 
						</coordinates>
					</LinearRing>
				</outerBoundaryIs>
			</Polygon>
		<description>HP: 724
HC: 362
CTOs (1x8): 46
PONs: 6
CEOs: 3</description></Placemark>
		<ns1:link rel="app" href="https://www.google.com/earth/about/versions/#earth-pro" title="Google Earth Pro 7.3.7.1155" />
	</Folder>
</Document>
</kml>